[{"OBJECT_NAME":"SJ-11-06","OBJECT_ID":"2014-014A","EPOCH":"2026-03-09T23:36:53.923680","MEAN_MOTION":14.61777646,"ECCENTRICITY":0.00126361,"INCLINATION":97.9599,"RA_OF_ASC_NODE":99.4808,"ARG_OF_PERICENTER":301.1982,"MEAN_ANOMALY":58.7981,"EPHEMERIS_TYPE":0,"CLASSIFICATION_TYPE":"U","NORAD_CAT_ID":39624,"ELEMENT_SET_NO":999,"REV_AT_EPOCH":63620,"BSTAR":0.00014245201,"MEAN_MOTION_DOT":6.66e-6,"MEAN_MOTION_DDOT":0},{"OBJECT_NAME":"SL-8 DEB","OBJECT_ID":"1982-051G","EPOCH":"2026-03-09T10:59:43.552608","MEAN_MOTION":14.6487695,"ECCENTRICITY":0.00085848,"INCLINATION":74.0447,"RA_OF_ASC_NODE":193.8602,"ARG_OF_PERICENTER":166.8688,"MEAN_ANOMALY":262.9729,"EPHEMERIS_TYPE":0,"CLASSIFICATION_TYPE":"U","NORAD_CAT_ID":19102,"ELEMENT_SET_NO":999,"REV_AT_EPOCH":61,"BSTAR":0.00068661286,"MEAN_MOTION_DOT":3.643e-5,"MEAN_MOTION_DDOT":0}]
